ION SCV-008             
1 55051U 23001AU  26068.82429008  .00008336  00000+0  31423-3 0  9992
2 55051  97.5676 163.6060 0015192   8.5420 351.6074 15.27226640176169
STARLINK-35385          
1 65906U 25224AA  26068.21908498  .00031293  00000+0  10648-2 0  9992
2 65906  53.1605  13.4269 0000906 116.6777 243.4317 15.30183882 24787
